format  = 'OEF2.0'       ! file format
rectype = 'ML'           ! record type (1L/ML)
refsys  = ECLM J2000     ! default reference system
END_OF_HEADER
99942
! Keplerian elements: a, e, i, long. node, arg. peric., mean anomaly
 KEP   9.2272184133465496E-01   0.191441141930856    3.339295820378  203.956557646087  126.604103652331  142.857142136292
 MJD     60200.000000000 TDT
 MAG  18.945  0.150
! Non-gravitational parameters: model used, number of model parameters, dimension, list of solve for parameters to be currently determined
 LSP   1  2    7    2
! Vector of dynamical parameters
! Area-to-mass ratio [m^2/t], Yarkovsky parameter [1E-10 au/day^2]
 NGR   0.00000000000000E+00 -2.88918364689752E-04
! PERIHELION   7.4607491834500639E-01
! APHELION   1.0993687643243035E+00
! ANODE  -8.6707715058413322E-04
! DNODE  -1.9894296321957006E-01
! MOID   2.5667311901019960E-04
! PERIOD   3.2374616153917481E+02
! PHA T
! VINFTY     5.4772184467655
! U_PAR 0.0
! ORB_TYPE Aten  
! RMS    1.06829E-10   1.41330E-09   1.59296E-07   7.83456E-06   8.41367E-06   1.08691E-06   2.35078E-06
 COV   1.141244683709316E-20 -1.277705137668703E-19 -7.185961844756049E-18
 COV   2.344803252588428E-16 -3.207964820382642E-16  7.470345028716321E-17
 COV   2.213105466251172E-16  1.997414057656414E-18  7.361967132408794E-17
 COV  -2.191039348475340E-15  3.405892537385540E-15 -1.064532510674101E-15
 COV  -1.932412856554877E-15  2.537512917683352E-14 -1.186184458027285E-12
 COV   1.294935291142860E-12 -1.544086403906037E-13 -2.342661899246152E-13
 COV   6.138037945640663E-11 -6.561899666200993E-11  6.793585852442817E-12
 COV   1.024458904371662E-11  7.078989443582840E-11 -7.770406835423008E-12
 COV  -1.189364539054358E-11  1.181375567936030E-12  1.734265358158205E-12
 COV   5.526179799653360E-12
 COR   1.000000000000000E+00 -8.462666109472383E-01 -4.222711318080247E-01
 COR   2.801574911989598E-01 -3.569066015090954E-01  6.433647831790731E-01
 COR   8.812522150882851E-01  1.000000000000000E+00  3.270059781450055E-01
 COR  -1.978797447736855E-01  2.864252214938928E-01 -6.929962519495177E-01
 COR  -5.816387891860086E-01  1.000000000000000E+00 -9.504588393945979E-01
 COR   9.661805793028864E-01 -8.918123362063010E-01 -6.255945806562317E-01
 COR   9.999999999999998E-01 -9.954722745788747E-01  7.977931280884524E-01
 COR   5.562464491297012E-01  1.000000000000000E+00 -8.496970939783123E-01
 COR  -6.013355065201714E-01  1.000000000000000E+00  6.787487631354118E-01
 COR   1.000000000000000E+00
